[{"CCSDS_OMM_VERS":"3.0","COMMENT":"GENERATED VIA SPACE-TRACK.ORG API","CREATION_DATE":"2026-03-28T11:26:42","ORIGINATOR":"18 SPCS","OBJECT_NAME":"FENGYUN 1C DEB","OBJECT_ID":"1999-025BRV","CENTER_NAME":"EARTH","REF_FRAME":"TEME","TIME_SYSTEM":"UTC","MEAN_ELEMENT_THEORY":"SGP4","EPOCH":"2026-03-28T04:52:46.503264","MEAN_MOTION":"14.43305705","ECCENTRICITY":"0.00393117","INCLINATION":"98.6655","RA_OF_ASC_NODE":"179.0127","ARG_OF_PERICENTER":"262.2358","MEAN_ANOMALY":"97.4367","EPHEMERIS_TYPE":"0","CLASSIFICATION_TYPE":"U","NORAD_CAT_ID":"31365","ELEMENT_SET_NO":"999","REV_AT_EPOCH":"98149","BSTAR":"0.00171461910000","MEAN_MOTION_DOT":"0.00005789","MEAN_MOTION_DDOT":"0.0000000000000","SEMIMAJOR_AXIS":"7125.734","PERIOD":"99.771","APOAPSIS":"775.612","PERIAPSIS":"719.587","OBJECT_TYPE":"DEBRIS","RCS_SIZE":"SMALL","COUNTRY_CODE":"PRC","LAUNCH_DATE":"1999-05-10","SITE":"TSC","DECAY_DATE":null,"FILE":"5103506","GP_ID":"317396288","TLE_LINE0":"0 FENGYUN 1C DEB","TLE_LINE1":"1 31365U 99025BRV 26087.20331601  .00005789  00000-0  17146-2 0  9992","TLE_LINE2":"2 31365  98.6655 179.0127 0039312 262.2358  97.4367 14.43305705981491"},{"CCSDS_OMM_VERS":"3.0","COMMENT":"GENERATED VIA SPACE-TRACK.ORG API","CREATION_DATE":"2025-01-07T22:48:31","ORIGINATOR":"18 SPCS","OBJECT_NAME":"FENGYUN 1C DEB","OBJECT_ID":"1999-025BRW","CENTER_NAME":"EARTH","REF_FRAME":"TEME","TIME_SYSTEM":"UTC","MEAN_ELEMENT_THEORY":"SGP4","EPOCH":"2025-01-03T23:55:06.866400","MEAN_MOTION":"15.79739596","ECCENTRICITY":"0.00161650","INCLINATION":"98.8133","RA_OF_ASC_NODE":"202.5519","ARG_OF_PERICENTER":"357.4728","MEAN_ANOMALY":"2.6451","EPHEMERIS_TYPE":"0","CLASSIFICATION_TYPE":"U","NORAD_CAT_ID":"31366","ELEMENT_SET_NO":"999","REV_AT_EPOCH":"92337","BSTAR":"0.03422900000000","MEAN_MOTION_DOT":"0.07682742","MEAN_MOTION_DDOT":"0.0000000000000","SEMIMAJOR_AXIS":"6709.315","PERIOD":"91.154","APOAPSIS":"342.025","PERIAPSIS":"320.334","OBJECT_TYPE":"DEBRIS","RCS_SIZE":"SMALL","COUNTRY_CODE":"PRC","LAUNCH_DATE":"1999-05-10","SITE":"TSC","DECAY_DATE":"2025-01-11","FILE":"4603571","GP_ID":"277553549","TLE_LINE0":"0 FENGYUN 1C DEB","TLE_LINE1":"1 31366U 99025BRW 25003.99660725  .07682742  00000-0  34229-1 0  9995","TLE_LINE2":"2 31366  98.8133 202.5519 0016165 357.4728   2.6451 15.79739596923375"},{"CCSDS_OMM_VERS":"3.0","COMMENT":"GENERATED VIA SPACE-TRACK.ORG API","CREATION_DATE":"2026-03-28T17:16:31","ORIGINATOR":"18 SPCS","OBJECT_NAME":"FENGYUN 1C DEB","OBJECT_ID":"1999-025BRX","CENTER_NAME":"EARTH","REF_FRAME":"TEME","TIME_SYSTEM":"UTC","MEAN_ELEMENT_THEORY":"SGP4","EPOCH":"2026-03-28T12:04:46.001280","MEAN_MOTION":"14.47993863","ECCENTRICITY":"0.00991370","INCLINATION":"98.7388","RA_OF_ASC_NODE":"350.3480","ARG_OF_PERICENTER":"57.5683","MEAN_ANOMALY":"115.2104","EPHEMERIS_TYPE":"0","CLASSIFICATION_TYPE":"U","NORAD_CAT_ID":"31367","ELEMENT_SET_NO":"999","REV_AT_EPOCH":"99996","BSTAR":"0.00051846000000","MEAN_MOTION_DOT":"0.00001997","MEAN_MOTION_DDOT":"0.0000000000000","SEMIMAJOR_AXIS":"7110.345","PERIOD":"99.448","APOAPSIS":"802.700","PERIAPSIS":"661.721","OBJECT_TYPE":"DEBRIS","RCS_SIZE":"SMALL","COUNTRY_CODE":"PRC","LAUNCH_DATE":"1999-05-10","SITE":"TSC","DECAY_DATE":null,"FILE":"5104349","GP_ID":"317440189","TLE_LINE0":"0 FENGYUN 1C DEB","TLE_LINE1":"1 31367U 99025BRX 26087.50331020  .00001997  00000-0  51846-3 0  9995","TLE_LINE2":"2 31367  98.7388 350.3480 0099137  57.5683 115.2104 14.47993863999961"},{"CCSDS_OMM_VERS":"3.0","COMMENT":"GENERATED VIA SPACE-TRACK.ORG API","CREATION_DATE":"2026-02-11T05:30:26","ORIGINATOR":"18 SPCS","OBJECT_NAME":"FENGYUN 1C DEB","OBJECT_ID":"1999-025BRY","CENTER_NAME":"EARTH","REF_FRAME":"TEME","TIME_SYSTEM":"UTC","MEAN_ELEMENT_THEORY":"SGP4","EPOCH":"2024-08-24T05:30:42.258528","MEAN_MOTION":"14.21089395","ECCENTRICITY":"0.00490182","INCLINATION":"99.1132","RA_OF_ASC_NODE":"37.8852","ARG_OF_PERICENTER":"210.4182","MEAN_ANOMALY":"149.4147","EPHEMERIS_TYPE":"0","CLASSIFICATION_TYPE":"U","NORAD_CAT_ID":"31368","ELEMENT_SET_NO":"999","REV_AT_EPOCH":"57699","BSTAR":"0.00205177620000","MEAN_MOTION_DOT":"0.00004465","MEAN_MOTION_DDOT":"0.0000000000000","SEMIMAJOR_AXIS":"7199.808","PERIOD":"101.331","APOAPSIS":"856.965","PERIAPSIS":"786.381","OBJECT_TYPE":"DEBRIS","RCS_SIZE":"SMALL","COUNTRY_CODE":"PRC","LAUNCH_DATE":"1999-05-10","SITE":"TSC","DECAY_DATE":null,"FILE":"5021784","GP_ID":"312069279","TLE_LINE0":"0 FENGYUN 1C DEB","TLE_LINE1":"1 31368U 99025BRY 24237.22965577  .00004465  00000-0  20518-2 0  9994","TLE_LINE2":"2 31368  99.1132  37.8852 0049018 210.4182 149.4147 14.21089395576999"},{"CCSDS_OMM_VERS":"3.0","COMMENT":"GENERATED VIA SPACE-TRACK.ORG API","CREATION_DATE":"2026-03-21T03:14:42","ORIGINATOR":"18 SPCS","OBJECT_NAME":"FENGYUN 1C DEB","OBJECT_ID":"1999-025BRZ","CENTER_NAME":"EARTH","REF_FRAME":"TEME","TIME_SYSTEM":"UTC","MEAN_ELEMENT_THEORY":"SGP4","EPOCH":"2026-03-20T17:34:50.943648","MEAN_MOTION":"14.19538335","ECCENTRICITY":"0.00559467","INCLINATION":"98.6322","RA_OF_ASC_NODE":"63.4421","ARG_OF_PERICENTER":"17.2935","MEAN_ANOMALY":"159.1277","EPHEMERIS_TYPE":"0","CLASSIFICATION_TYPE":"U","NORAD_CAT_ID":"31369","ELEMENT_SET_NO":"999","REV_AT_EPOCH":"65717","BSTAR":"0.00026482532000","MEAN_MOTION_DOT":"0.00000524","MEAN_MOTION_DDOT":"0.0000000000000","SEMIMAJOR_AXIS":"7205.052","PERIOD":"101.441","APOAPSIS":"867.226","PERIAPSIS":"786.607","OBJECT_TYPE":"DEBRIS","RCS_SIZE":"SMALL","COUNTRY_CODE":"PRC","LAUNCH_DATE":"1999-05-10","SITE":"TSC","DECAY_DATE":null,"FILE":"5094740","GP_ID":"316644199","TLE_LINE0":"0 FENGYUN 1C DEB","TLE_LINE1":"1 31369U 99025BRZ 26079.73253407  .00000524  00000-0  26483-3 0  9999","TLE_LINE2":"2 31369  98.6322  63.4421 0055947  17.2935 159.1277 14.19538335657171"},{"CCSDS_OMM_VERS":"3.0","COMMENT":"GENERATED VIA SPACE-TRACK.ORG API","CREATION_DATE":"2026-03-15T17:50:51","ORIGINATOR":"18 SPCS","OBJECT_NAME":"FENGYUN 1C DEB","OBJECT_ID":"1999-025BSA","CENTER_NAME":"EARTH","REF_FRAME":"TEME","TIME_SYSTEM":"UTC","MEAN_ELEMENT_THEORY":"SGP4","EPOCH":"2026-03-15T10:53:52.758240","MEAN_MOTION":"14.09841729","ECCENTRICITY":"0.00347523","INCLINATION":"98.7586","RA_OF_ASC_NODE":"76.9453","ARG_OF_PERICENTER":"36.1987","MEAN_ANOMALY":"324.1526","EPHEMERIS_TYPE":"0","CLASSIFICATION_TYPE":"U","NORAD_CAT_ID":"31370","ELEMENT_SET_NO":"999","REV_AT_EPOCH":"97600","BSTAR":"0.00034223149000","MEAN_MOTION_DOT":"0.00000562","MEAN_MOTION_DDOT":"0.0000000000000","SEMIMAJOR_AXIS":"7238.050","PERIOD":"102.139","APOAPSIS":"885.069","PERIAPSIS":"834.761","OBJECT_TYPE":"DEBRIS","RCS_SIZE":"SMALL","COUNTRY_CODE":"PRC","LAUNCH_DATE":"1999-05-10","SITE":"TSC","DECAY_DATE":null,"FILE":"5087142","GP_ID":"316048906","TLE_LINE0":"0 FENGYUN 1C DEB","TLE_LINE1":"1 31370U 99025BSA 26074.45408285  .00000562  00000-0  34223-3 0  9994","TLE_LINE2":"2 31370  98.7586  76.9453 0034752  36.1987 324.1526 14.09841729976008"},{"CCSDS_OMM_VERS":"3.0","COMMENT":"GENERATED VIA SPACE-TRACK.ORG API","CREATION_DATE":"2026-03-27T10:51:03","ORIGINATOR":"18 SPCS","OBJECT_NAME":"FENGYUN 1C DEB","OBJECT_ID":"1999-025BSB","CENTER_NAME":"EARTH","REF_FRAME":"TEME","TIME_SYSTEM":"UTC","MEAN_ELEMENT_THEORY":"SGP4","EPOCH":"2026-03-27T01:34:17.087520","MEAN_MOTION":"14.04791729","ECCENTRICITY":"0.00761003","INCLINATION":"98.7524","RA_OF_ASC_NODE":"120.4319","ARG_OF_PERICENTER":"314.9181","MEAN_ANOMALY":"44.5828","EPHEMERIS_TYPE":"0","CLASSIFICATION_TYPE":"U","NORAD_CAT_ID":"31371","ELEMENT_SET_NO":"999","REV_AT_EPOCH":"97211","BSTAR":"0.00058074523000","MEAN_MOTION_DOT":"0.00000913","MEAN_MOTION_DDOT":"0.0000000000000","SEMIMAJOR_AXIS":"7255.386","PERIOD":"102.506","APOAPSIS":"932.465","PERIAPSIS":"822.038","OBJECT_TYPE":"DEBRIS","RCS_SIZE":"SMALL","COUNTRY_CODE":"PRC","LAUNCH_DATE":"1999-05-10","SITE":"TSC","DECAY_DATE":null,"FILE":"5101052","GP_ID":"317237934","TLE_LINE0":"0 FENGYUN 1C DEB","TLE_LINE1":"1 31371U 99025BSB 26086.06547555  .00000913  00000-0  58075-3 0  9990","TLE_LINE2":"2 31371  98.7524 120.4319 0076100 314.9181  44.5828 14.04791729972118"},{"CCSDS_OMM_VERS":"3.0","COMMENT":"GENERATED VIA SPACE-TRACK.ORG API","CREATION_DATE":"2026-03-27T22:26:21","ORIGINATOR":"18 SPCS","OBJECT_NAME":"FENGYUN 1C DEB","OBJECT_ID":"1999-025BSC","CENTER_NAME":"EARTH","REF_FRAME":"TEME","TIME_SYSTEM":"UTC","MEAN_ELEMENT_THEORY":"SGP4","EPOCH":"2026-03-27T10:37:11.283744","MEAN_MOTION":"14.27498673","ECCENTRICITY":"0.00339040","INCLINATION":"99.3801","RA_OF_ASC_NODE":"89.9535","ARG_OF_PERICENTER":"134.2639","MEAN_ANOMALY":"226.1330","EPHEMERIS_TYPE":"0","CLASSIFICATION_TYPE":"U","NORAD_CAT_ID":"31372","ELEMENT_SET_NO":"999","REV_AT_EPOCH":"97344","BSTAR":"0.00127430000000","MEAN_MOTION_DOT":"0.00003101","MEAN_MOTION_DDOT":"0.0000000000000","SEMIMAJOR_AXIS":"7178.241","PERIOD":"100.876","APOAPSIS":"824.443","PERIAPSIS":"775.769","OBJECT_TYPE":"DEBRIS","RCS_SIZE":"SMALL","COUNTRY_CODE":"PRC","LAUNCH_DATE":"1999-05-10","SITE":"TSC","DECAY_DATE":null,"FILE":"5101511","GP_ID":"317304793","TLE_LINE0":"0 FENGYUN 1C DEB","TLE_LINE1":"1 31372U 99025BSC 26086.44249171  .00003101  00000-0  12743-2 0  9999","TLE_LINE2":"2 31372  99.3801  89.9535 0033904 134.2639 226.1330 14.27498673973449"}]